{"type": "FeatureCollection", "features": [ {"type": "Feature", "properties": {"norad_id": 33153, "name": "INTELSAT 25 (IS-25)", "group": "intelsat", "lat": -1.616217281383071, "lon": -50.504515435897396, "alt_km": 35771.34790939301, "timestamp": "2025-12-04T17:48:39.840752+00:00", "meta": {"OBJECT_NAME": "INTELSAT 25 (IS-25)", "OBJECT_ID": "2008-034A", "EPOCH": "2025-12-04T06:43:41.394144", "MEAN_MOTION": 1.00271178, "ECCENTRICITY": 0.00053971, "INCLINATION": 2.2043, "RA_OF_ASC_NODE": 82.7431, "ARG_OF_PERICENTER": 178.3332, "MEAN_ANOMALY": 241.7118, "EPHEMERIS_TYPE": 0, "CLASSIFICATION_TYPE": "U", "NORAD_CAT_ID": 33153, "ELEMENT_SET_NO": 999, "REV_AT_EPOCH": 6374, "BSTAR": 0, "MEAN_MOTION_DOT": -2.09e-06, "MEAN_MOTION_DDOT": 0}, "tle": {"line1": "1 33153U 08034A   25338.28034021 -.00000209  00000+0  00000+0 0  9991", "line2": "2 33153   2.2043  82.7431 0005397 178.3332 241.7118  1.00271178 63745"}}, "geometry": {"type": "Point", "coordinates": [-50.504515435897396, -1.616217281383071]}}, {"type": "Feature", "properties": {"norad_id": 33376, "name": "GALAXY 19 (G-19)", "group": "intelsat", "lat": -0.03015790095264183, "lon": -116.05078378551637, "alt_km": 35772.823383984396, "timestamp": "2025-12-04T17:48:39.840764+00:00", "meta": {"OBJECT_NAME": "GALAXY 19 (G-19)", "OBJECT_ID": "2008-045A", "EPOCH": "2025-12-04T06:24:58.187232", "MEAN_MOTION": 1.00270783, "ECCENTRICITY": 0.00033778, "INCLINATION": 0.0149, "RA_OF_ASC_NODE": 16.2013, "ARG_OF_PERICENTER": 246.4858, "MEAN_ANOMALY": 169.9049, "EPHEMERIS_TYPE": 0, "CLASSIFICATION_TYPE": "U", "NORAD_CAT_ID": 33376, "ELEMENT_SET_NO": 999, "REV_AT_EPOCH": 6294, "BSTAR": 0, "MEAN_MOTION_DOT": -1.23e-06, "MEAN_MOTION_DDOT": 0}, "tle": {"line1": "1 33376U 08045A   25338.26734013 -.00000123  00000+0  00000+0 0  9991", "line2": "2 33376   0.0149  16.2013 0003377 246.4858 169.9049  1.00270783 62945"}}, "geometry": {"type": "Point", "coordinates": [-116.05078378551637, -0.03015790095264183]}}, {"type": "Feature", "properties": {"norad_id": 35493, "name": "FM-5", "group": "intelsat", "lat": -0.02954527667877085, "lon": -105.17594145054345, "alt_km": 35786.68441737874, "timestamp": "2025-12-04T17:48:39.840776+00:00", "meta": {"OBJECT_NAME": "FM-5", "OBJECT_ID": "2009-034A", "EPOCH": "2025-12-04T06:28:05.388384", "MEAN_MOTION": 1.00269426, "ECCENTRICITY": 0.00011086, "INCLINATION": 0.02, "RA_OF_ASC_NODE": 287.2113, "ARG_OF_PERICENTER": 238.7, "MEAN_ANOMALY": 278.3151, "EPHEMERIS_TYPE": 0, "CLASSIFICATION_TYPE": "U", "NORAD_CAT_ID": 35493, "ELEMENT_SET_NO": 999, "REV_AT_EPOCH": 4469, "BSTAR": 0, "MEAN_MOTION_DOT": -1.84e-06, "MEAN_MOTION_DDOT": 0}, "tle": {"line1": "1 35493U 09034A   25338.26950681 -.00000184  00000+0  00000+0 0  9990", "line2": "2 35493   0.0200 287.2113 0001108 238.7000 278.3151  1.00269426 44692"}}, "geometry": {"type": "Point", "coordinates": [-105.17594145054345, -0.02954527667877085]}}, {"type": "Feature", "properties": {"norad_id": 36097, "name": "INTELSAT 14 (IS-14)", "group": "intelsat", "lat": -0.013179590630863892, "lon": -64.0182785837849, "alt_km": 35777.539524113155, "timestamp": "2025-12-04T17:48:39.840787+00:00", "meta": {"OBJECT_NAME": "INTELSAT 14 (IS-14)", "OBJECT_ID": "2009-064A", "EPOCH": "2025-12-04T06:39:49.264992", "MEAN_MOTION": 1.00271071, "ECCENTRICITY": 0.00026882, "INCLINATION": 0.0137, "RA_OF_ASC_NODE": 310.0555, "ARG_OF_PERICENTER": 306.4876, "MEAN_ANOMALY": 231.772, "EPHEMERIS_TYPE": 0, "CLASSIFICATION_TYPE": "U", "NORAD_CAT_ID": 36097, "ELEMENT_SET_NO": 999, "REV_AT_EPOCH": 5865, "BSTAR": 0, "MEAN_MOTION_DOT": -2.58e-06, "MEAN_MOTION_DDOT": 0}, "tle": {"line1": "1 36097U 09064A   25338.27765353 -.00000258  00000+0  00000+0 0  9997", "line2": "2 36097   0.0137 310.0555 0002688 306.4876 231.7720  1.00271071 58650"}}, "geometry": {"type": "Point", "coordinates": [-64.0182785837849, -0.013179590630863892]}}, {"type": "Feature", "properties": {"norad_id": 36106, "name": "INTELSAT 15 (IS-15)", "group": "intelsat", "lat": 0.03949164861527432, "lon": 66.11886574062159, "alt_km": 35796.85299066499, "timestamp": "2025-12-04T17:48:39.840798+00:00", "meta": {"OBJECT_NAME": "INTELSAT 15 (IS-15)", "OBJECT_ID": "2009-067A", "EPOCH": "2025-12-04T03:10:38.713728", "MEAN_MOTION": 1.0027022, "ECCENTRICITY": 0.00024584, "INCLINATION": 0.0139, "RA_OF_ASC_NODE": 336.3645, "ARG_OF_PERICENTER": 278.4254, "MEAN_ANOMALY": 311.2428, "EPHEMERIS_TYPE": 0, "CLASSIFICATION_TYPE": "U", "NORAD_CAT_ID": 36106, "ELEMENT_SET_NO": 999, "REV_AT_EPOCH": 3927, "BSTAR": 0, "MEAN_MOTION_DOT": -1.69e-06, "MEAN_MOTION_DDOT": 0}, "tle": {"line1": "1 36106U 09067A   25338.13239252 -.00000169  00000+0  00000+0 0  9991", "line2": "2 36106   0.0139 336.3645 0002458 278.4254 311.2428  1.00270220 39278"}}, "geometry": {"type": "Point", "coordinates": [66.11886574062159, 0.03949164861527432]}}, {"type": "Feature", "properties": {"norad_id": 36131, "name": "DIRECTV 12", "group": "intelsat", "lat": 0.002081502061867072, "lon": -121.75935240379965, "alt_km": 35786.11149380463, "timestamp": "2025-12-04T17:48:39.840810+00:00", "meta": {"OBJECT_NAME": "DIRECTV 12", "OBJECT_ID": "2009-075A", "EPOCH": "2025-12-04T06:23:20.842944", "MEAN_MOTION": 1.00270945, "ECCENTRICITY": 8.61e-06, "INCLINATION": 0.0116, "RA_OF_ASC_NODE": 87.7232, "ARG_OF_PERICENTER": 96.3466, "MEAN_ANOMALY": 242.3934, "EPHEMERIS_TYPE": 0, "CLASSIFICATION_TYPE": "U", "NORAD_CAT_ID": 36131, "ELEMENT_SET_NO": 999, "REV_AT_EPOCH": 4459, "BSTAR": 0, "MEAN_MOTION_DOT": -8.8e-07, "MEAN_MOTION_DDOT": 0}, "tle": {"line1": "1 36131U 09075A   25338.26621346 -.00000088  00000+0  00000+0 0  9991", "line2": "2 36131   0.0116  87.7232 0000086  96.3466 242.3934  1.00270945 44598"}}, "geometry": {"type": "Point", "coordinates": [-121.75935240379965, 0.002081502061867072]}}, {"type": "Feature", "properties": {"norad_id": 36397, "name": "INTELSAT 16 (IS-16)", "group": "intelsat", "lat": -0.030668144739333374, "lon": -95.2468452591882, "alt_km": 35776.51987187297, "timestamp": "2025-12-04T17:48:39.840822+00:00", "meta": {"OBJECT_NAME": "INTELSAT 16 (IS-16)", "OBJECT_ID": "2010-006A", "EPOCH": "2025-12-04T06:30:57.612960", "MEAN_MOTION": 1.00269649, "ECCENTRICITY": 0.00024234, "INCLINATION": 0.0101, "RA_OF_ASC_NODE": 321.3035, "ARG_OF_PERICENTER": 297.2807, "MEAN_ANOMALY": 196.3001, "EPHEMERIS_TYPE": 0, "CLASSIFICATION_TYPE": "U", "NORAD_CAT_ID": 36397, "ELEMENT_SET_NO": 999, "REV_AT_EPOCH": 5770, "BSTAR": 0, "MEAN_MOTION_DOT": -2.29e-06, "MEAN_MOTION_DDOT": 0}, "tle": {"line1": "1 36397U 10006A   25338.27150015 -.00000229  00000+0  00000+0 0  9999", "line2": "2 36397   0.0101 321.3035 0002423 297.2807 196.3001  1.00269649 57701"}}, "geometry": {"type": "Point", "coordinates": [-95.2468452591882, -0.030668144739333374]}}, {"type": "Feature", "properties": {"norad_id": 37185, "name": "XM-5", "group": "intelsat", "lat": -0.06574517239789199, "lon": -134.22687417975243, "alt_km": 35784.97323310028, "timestamp": "2025-12-04T17:48:39.840833+00:00", "meta": {"OBJECT_NAME": "XM-5", "OBJECT_ID": "2010-053A", "EPOCH": "2025-12-04T04:37:07.552992", "MEAN_MOTION": 1.00269497, "ECCENTRICITY": 0.00012779, "INCLINATION": 0.06, "RA_OF_ASC_NODE": 273.4214, "ARG_OF_PERICENTER": 241.3568, "MEAN_ANOMALY": 232.5796, "EPHEMERIS_TYPE": 0, "CLASSIFICATION_TYPE": "U", "NORAD_CAT_ID": 37185, "ELEMENT_SET_NO": 999, "REV_AT_EPOCH": 5552, "BSTAR": 0, "MEAN_MOTION_DOT": -7e-08, "MEAN_MOTION_DDOT": 0}, "tle": {"line1": "1 37185U 10053A   25338.19244853 -.00000007  00000+0  00000+0 0  9996", "line2": "2 37185   0.0600 273.4214 0001277 241.3568 232.5796  1.00269497 55520"}}, "geometry": {"type": "Point", "coordinates": [-134.22687417975243, -0.06574517239789199]}}, {"type": "Feature", "properties": {"norad_id": 37238, "name": "INTELSAT 17 (IS-17)", "group": "intelsat", "lat": 0.03277428295558428, "lon": 46.95784491562595, "alt_km": 35795.902411333795, "timestamp": "2025-12-04T17:48:39.840845+00:00", "meta": {"OBJECT_NAME": "INTELSAT 17 (IS-17)", "OBJECT_ID": "2010-065B", "EPOCH": "2025-12-04T03:45:57.456000", "MEAN_MOTION": 1.00269312, "ECCENTRICITY": 0.0002322, "INCLINATION": 0.0139, "RA_OF_ASC_NODE": 286.2982, "ARG_OF_PERICENTER": 322.1387, "MEAN_ANOMALY": 307.283, "EPHEMERIS_TYPE": 0, "CLASSIFICATION_TYPE": "U", "NORAD_CAT_ID": 37238, "ELEMENT_SET_NO": 999, "REV_AT_EPOCH": 5129, "BSTAR": 0, "MEAN_MOTION_DOT": 1.5e-07, "MEAN_MOTION_DDOT": 0}, "tle": {"line1": "1 37238U 10065B   25338.15691500  .00000015  00000+0  00000+0 0  9997", "line2": "2 37238   0.0139 286.2982 0002322 322.1387 307.2830  1.00269312 51294"}}, "geometry": {"type": "Point", "coordinates": [46.95784491562595, 0.03277428295558428]}}, {"type": "Feature", "properties": {"norad_id": 37392, "name": "INTELSAT 28 (IS-28)", "group": "intelsat", "lat": -0.9152382037438294, "lon": -50.71640328845157, "alt_km": 35775.30309708497, "timestamp": "2025-12-04T17:48:39.840857+00:00", "meta": {"OBJECT_NAME": "INTELSAT 28 (IS-28)", "OBJECT_ID": "2011-016A", "EPOCH": "2025-12-04T06:43:33.905856", "MEAN_MOTION": 1.00271033, "ECCENTRICITY": 0.00041248, "INCLINATION": 1.3011, "RA_OF_ASC_NODE": 85.1581, "ARG_OF_PERICENTER": 173.8071, "MEAN_ANOMALY": 243.578, "EPHEMERIS_TYPE": 0, "CLASSIFICATION_TYPE": "U", "NORAD_CAT_ID": 37392, "ELEMENT_SET_NO": 999, "REV_AT_EPOCH": 5133, "BSTAR": 0, "MEAN_MOTION_DOT": -2.1e-06, "MEAN_MOTION_DDOT": 0}, "tle": {"line1": "1 37392U 11016A   25338.28025354 -.00000210  00000+0  00000+0 0  9995", "line2": "2 37392   1.3011  85.1581 0004124 173.8071 243.5780  1.00271033 51336"}}, "geometry": {"type": "Point", "coordinates": [-50.71640328845157, -0.9152382037438294]}}]}